{
  "norad_id": 56729,
  "name": "IRIDIUM 178",
  "history": [
    {
      "epoch": "2026-03-28T22:24:04.455360Z",
      "apogee_km": 630.5763949754519,
      "perigee_km": 626.593634047963,
      "latitude_deg": 7.892939687933596e-05,
      "longitude_deg": -103.47818148386082,
      "height_km": 631.6905969460865,
      "semi_major_axis_km": 7006.722014511707,
      "eccentricity": 0.00028421,
      "inclination_deg": 86.6513,
      "raan_deg": 58.8871,
      "arg_perigee_deg": 89.7441,
      "mean_anomaly_deg": 270.4107,
      "mean_motion_rev_day": 14.80234188
    },
    {
      "epoch": "2026-03-29T04:53:27.524256Z",
      "apogee_km": 630.5705420622162,
      "perigee_km": 626.5879245552032,
      "latitude_deg": -1.9689854873848645e-05,
      "longitude_deg": 158.79606824742865,
      "height_km": 631.6786753275901,
      "semi_major_axis_km": 7006.716233308709,
      "eccentricity": 0.0002842,
      "inclination_deg": 86.6513,
      "raan_deg": 58.774,
      "arg_perigee_deg": 89.5669,
      "mean_anomaly_deg": 270.5878,
      "mean_motion_rev_day": 14.8023602
    }
  ]
}